[{"OBJECT_NAME":"YAOGAN-50 02","OBJECT_ID":"2026-051A","EPOCH":"2026-04-10T06:37:03.232704","MEAN_MOTION":13.83262132,"ECCENTRICITY":7.16e-5,"INCLINATION":141.9858,"RA_OF_ASC_NODE":359.6307,"ARG_OF_PERICENTER":265.8956,"MEAN_ANOMALY":94.1682,"EPHEMERIS_TYPE":0,"CLASSIFICATION_TYPE":"U","NORAD_CAT_ID":68196,"ELEMENT_SET_NO":999,"REV_AT_EPOCH":358,"BSTAR":8.784404e-5,"MEAN_MOTION_DOT":2.84e-6,"MEAN_MOTION_DDOT":0},{"OBJECT_NAME":"CZ-6A R/B","OBJECT_ID":"2026-051B","EPOCH":"2026-04-10T04:29:53.311776","MEAN_MOTION":14.56394446,"ECCENTRICITY":0.01874774,"INCLINATION":142.0298,"RA_OF_ASC_NODE":13.8808,"ARG_OF_PERICENTER":278.2176,"MEAN_ANOMALY":79.735,"EPHEMERIS_TYPE":0,"CLASSIFICATION_TYPE":"U","NORAD_CAT_ID":68197,"ELEMENT_SET_NO":999,"REV_AT_EPOCH":375,"BSTAR":0.0001386774,"MEAN_MOTION_DOT":1.089e-5,"MEAN_MOTION_DDOT":0},{"OBJECT_NAME":"2026-052A","OBJECT_ID":"2026-052A","EPOCH":"2026-04-10T06:25:06.699360","MEAN_MOTION":15.10156264,"ECCENTRICITY":0.00140861,"INCLINATION":97.5353,"RA_OF_ASC_NODE":176.1131,"ARG_OF_PERICENTER":174.8743,"MEAN_ANOMALY":185.2633,"EPHEMERIS_TYPE":0,"CLASSIFICATION_TYPE":"U","NORAD_CAT_ID":68198,"ELEMENT_SET_NO":999,"REV_AT_EPOCH":379,"BSTAR":0.00042664233,"MEAN_MOTION_DOT":6.915e-5,"MEAN_MOTION_DDOT":0},{"OBJECT_NAME":"YUXING-3 06","OBJECT_ID":"2026-052B","EPOCH":"2026-04-10T06:21:36.745632","MEAN_MOTION":15.10263752,"ECCENTRICITY":0.00131214,"INCLINATION":97.5354,"RA_OF_ASC_NODE":176.1161,"ARG_OF_PERICENTER":175.8986,"MEAN_ANOMALY":184.2354,"EPHEMERIS_TYPE":0,"CLASSIFICATION_TYPE":"U","NORAD_CAT_ID":68199,"ELEMENT_SET_NO":999,"REV_AT_EPOCH":379,"BSTAR":0.00030753693,"MEAN_MOTION_DOT":4.979e-5,"MEAN_MOTION_DDOT":0},{"OBJECT_NAME":"2026-052C","OBJECT_ID":"2026-052C","EPOCH":"2026-04-10T06:18:40.792032","MEAN_MOTION":15.10366015,"ECCENTRICITY":0.0012853,"INCLINATION":97.535,"RA_OF_ASC_NODE":176.1195,"ARG_OF_PERICENTER":178.2243,"MEAN_ANOMALY":181.9035,"EPHEMERIS_TYPE":0,"CLASSIFICATION_TYPE":"U","NORAD_CAT_ID":68200,"ELEMENT_SET_NO":999,"REV_AT_EPOCH":378,"BSTAR":0.00025297092,"MEAN_MOTION_DOT":4.095e-5,"MEAN_MOTION_DDOT":0},{"OBJECT_NAME":"2026-052D","OBJECT_ID":"2026-052D","EPOCH":"2026-04-10T04:38:20.300928","MEAN_MOTION":15.10645844,"ECCENTRICITY":0.00120982,"INCLINATION":97.5348,"RA_OF_ASC_NODE":176.0559,"ARG_OF_PERICENTER":175.143,"MEAN_ANOMALY":184.9919,"EPHEMERIS_TYPE":0,"CLASSIFICATION_TYPE":"U","NORAD_CAT_ID":68201,"ELEMENT_SET_NO":999,"REV_AT_EPOCH":378,"BSTAR":0.00038747422,"MEAN_MOTION_DOT":6.356e-5,"MEAN_MOTION_DDOT":0},{"OBJECT_NAME":"2026-052E","OBJECT_ID":"2026-052E","EPOCH":"2026-04-10T06:13:42.739680","MEAN_MOTION":15.10649183,"ECCENTRICITY":0.00122008,"INCLINATION":97.5342,"RA_OF_ASC_NODE":176.1227,"ARG_OF_PERICENTER":180.0772,"MEAN_ANOMALY":180.0458,"EPHEMERIS_TYPE":0,"CLASSIFICATION_TYPE":"U","NORAD_CAT_ID":68202,"ELEMENT_SET_NO":999,"REV_AT_EPOCH":379,"BSTAR":0.00060418512,"MEAN_MOTION_DOT":9.953e-5,"MEAN_MOTION_DDOT":0},{"OBJECT_NAME":"2026-052F","OBJECT_ID":"2026-052F","EPOCH":"2026-04-10T06:07:37.429248","MEAN_MOTION":15.1090225,"ECCENTRICITY":0.00111786,"INCLINATION":97.5343,"RA_OF_ASC_NODE":176.1318,"ARG_OF_PERICENTER":171.5415,"MEAN_ANOMALY":188.6005,"EPHEMERIS_TYPE":0,"CLASSIFICATION_TYPE":"U","NORAD_CAT_ID":68203,"ELEMENT_SET_NO":999,"REV_AT_EPOCH":379,"BSTAR":0.00035901396,"MEAN_MOTION_DOT":5.925e-5,"MEAN_MOTION_DDOT":0},{"OBJECT_NAME":"2026-052G","OBJECT_ID":"2026-052G","EPOCH":"2026-04-10T06:06:29.148192","MEAN_MOTION":15.10949749,"ECCENTRICITY":0.00107063,"INCLINATION":97.5353,"RA_OF_ASC_NODE":176.1288,"ARG_OF_PERICENTER":174.0246,"MEAN_ANOMALY":186.1114,"EPHEMERIS_TYPE":0,"CLASSIFICATION_TYPE":"U","NORAD_CAT_ID":68204,"ELEMENT_SET_NO":999,"REV_AT_EPOCH":379,"BSTAR":0.00039213924,"MEAN_MOTION_DOT":6.486e-5,"MEAN_MOTION_DDOT":0},{"OBJECT_NAME":"KZ-11 R/B","OBJECT_ID":"2026-052H","EPOCH":"2026-04-10T07:30:20.342880","MEAN_MOTION":14.67907821,"ECCENTRICITY":0.05426148,"INCLINATION":97.3388,"RA_OF_ASC_NODE":174.4264,"ARG_OF_PERICENTER":291.3811,"MEAN_ANOMALY":63.0337,"EPHEMERIS_TYPE":0,"CLASSIFICATION_TYPE":"U","NORAD_CAT_ID":68205,"ELEMENT_SET_NO":999,"REV_AT_EPOCH":369,"BSTAR":0.00029163174,"MEAN_MOTION_DOT":0.00019192,"MEAN_MOTION_DDOT":2.006672e-6},{"OBJECT_NAME":"2026-052J","OBJECT_ID":"2026-052J","EPOCH":"2026-04-10T07:06:49.290048","MEAN_MOTION":14.70088437,"ECCENTRICITY":0.05343488,"INCLINATION":97.3386,"RA_OF_ASC_NODE":174.4441,"ARG_OF_PERICENTER":291.3274,"MEAN_ANOMALY":63.1708,"EPHEMERIS_TYPE":0,"CLASSIFICATION_TYPE":"U","NORAD_CAT_ID":68206,"ELEMENT_SET_NO":999,"REV_AT_EPOCH":369,"BSTAR":0.00091891954,"MEAN_MOTION_DOT":0.00063184,"MEAN_MOTION_DDOT":2.578618e-6},{"OBJECT_NAME":"STARLINK-36986","OBJECT_ID":"2026-053A","EPOCH":"2026-04-10T06:00:00.999648","MEAN_MOTION":15.62942235,"ECCENTRICITY":0.00020343,"INCLINATION":97.285,"RA_OF_ASC_NODE":336.0972,"ARG_OF_PERICENTER":88.4064,"MEAN_ANOMALY":92.1163,"EPHEMERIS_TYPE":0,"CLASSIFICATION_TYPE":"U","NORAD_CAT_ID":68207,"ELEMENT_SET_NO":999,"REV_AT_EPOCH":508,"BSTAR":-0.024075843,"MEAN_MOTION_DOT":-0.01923348,"MEAN_MOTION_DDOT":0},{"OBJECT_NAME":"STARLINK-37009","OBJECT_ID":"2026-053B","EPOCH":"2026-04-10T06:00:00.999648","MEAN_MOTION":15.64813924,"ECCENTRICITY":0.00022334,"INCLINATION":97.2851,"RA_OF_ASC_NODE":336.107,"ARG_OF_PERICENTER":104.9026,"MEAN_ANOMALY":106.6162,"EPHEMERIS_TYPE":0,"CLASSIFICATION_TYPE":"U","NORAD_CAT_ID":68208,"ELEMENT_SET_NO":999,"REV_AT_EPOCH":508,"BSTAR":-0.023102493,"MEAN_MOTION_DOT":-0.01980148,"MEAN_MOTION_DDOT":0},{"OBJECT_NAME":"STARLINK-36948","OBJECT_ID":"2026-053C","EPOCH":"2026-04-10T06:00:00.999648","MEAN_MOTION":15.65256524,"ECCENTRICITY":0.00020258,"INCLINATION":97.2853,"RA_OF_ASC_NODE":336.1113,"ARG_OF_PERICENTER":107.6694,"MEAN_ANOMALY":114.0597,"EPHEMERIS_TYPE":0,"CLASSIFICATION_TYPE":"U","NORAD_CAT_ID":68209,"ELEMENT_SET_NO":999,"REV_AT_EPOCH":498,"BSTAR":-0.022712862,"MEAN_MOTION_DOT":-0.01981189,"MEAN_MOTION_DDOT":0},{"OBJECT_NAME":"STARLINK-37119","OBJECT_ID":"2026-053D","EPOCH":"2026-04-10T06:00:00.999648","MEAN_MOTION":15.6551589,"ECCENTRICITY":0.00020886,"INCLINATION":97.2852,"RA_OF_ASC_NODE":336.1147,"ARG_OF_PERICENTER":104.2056,"MEAN_ANOMALY":125.3233,"EPHEMERIS_TYPE":0,"CLASSIFICATION_TYPE":"U","NORAD_CAT_ID":68210,"ELEMENT_SET_NO":999,"REV_AT_EPOCH":508,"BSTAR":-0.022429517,"MEAN_MOTION_DOT":-0.01977491,"MEAN_MOTION_DDOT":0},{"OBJECT_NAME":"STARLINK-37120","OBJECT_ID":"2026-053E","EPOCH":"2026-04-10T06:00:00.999648","MEAN_MOTION":15.65724916,"ECCENTRICITY":0.0002088,"INCLINATION":97.2851,"RA_OF_ASC_NODE":336.1176,"ARG_OF_PERICENTER":106.0093,"MEAN_ANOMALY":130.4729,"EPHEMERIS_TYPE":0,"CLASSIFICATION_TYPE":"U","NORAD_CAT_ID":68211,"ELEMENT_SET_NO":999,"REV_AT_EPOCH":506,"BSTAR":-0.022268674,"MEAN_MOTION_DOT":-0.01979594,"MEAN_MOTION_DDOT":0},{"OBJECT_NAME":"STARLINK-37117","OBJECT_ID":"2026-053F","EPOCH":"2026-04-10T06:00:00.999648","MEAN_MOTION":15.66164717,"ECCENTRICITY":0.00019985,"INCLINATION":97.2852,"RA_OF_ASC_NODE":336.1218,"ARG_OF_PERICENTER":106.2816,"MEAN_ANOMALY":140.0939,"EPHEMERIS_TYPE":0,"CLASSIFICATION_TYPE":"U","NORAD_CAT_ID":68212,"ELEMENT_SET_NO":999,"REV_AT_EPOCH":508,"BSTAR":-0.021864843,"MEAN_MOTION_DOT":-0.01978518,"MEAN_MOTION_DDOT":0},{"OBJECT_NAME":"STARLINK-37116","OBJECT_ID":"2026-053G","EPOCH":"2026-04-10T06:00:00.999648","MEAN_MOTION":15.66195964,"ECCENTRICITY":0.00020116,"INCLINATION":97.2852,"RA_OF_ASC_NODE":336.1238,"ARG_OF_PERICENTER":107.0718,"MEAN_ANOMALY":143.9626,"EPHEMERIS_TYPE":0,"CLASSIFICATION_TYPE":"U","NORAD_CAT_ID":68213,"ELEMENT_SET_NO":999,"REV_AT_EPOCH":508,"BSTAR":-0.021833996,"MEAN_MOTION_DOT":-0.01978268,"MEAN_MOTION_DDOT":0},{"OBJECT_NAME":"STARLINK-35854","OBJECT_ID":"2026-053H","EPOCH":"2026-04-10T06:00:00.999648","MEAN_MOTION":15.66342901,"ECCENTRICITY":0.00018325,"INCLINATION":97.2853,"RA_OF_ASC_NODE":336.1265,"ARG_OF_PERICENTER":111.6793,"MEAN_ANOMALY":145.4643,"EPHEMERIS_TYPE":0,"CLASSIFICATION_TYPE":"U","NORAD_CAT_ID":68214,"ELEMENT_SET_NO":999,"REV_AT_EPOCH":485,"BSTAR":-0.021690081,"MEAN_MOTION_DOT":-0.01976945,"MEAN_MOTION_DDOT":0},{"OBJECT_NAME":"STARLINK-36272","OBJECT_ID":"2026-053J","EPOCH":"2026-04-10T06:00:00.999648","MEAN_MOTION":15.49196797,"ECCENTRICITY":0.00023226,"INCLINATION":97.2852,"RA_OF_ASC_NODE":335.9489,"ARG_OF_PERICENTER":91.3184,"MEAN_ANOMALY":109.5067,"EPHEMERIS_TYPE":0,"CLASSIFICATION_TYPE":"U","NORAD_CAT_ID":68215,"ELEMENT_SET_NO":999,"REV_AT_EPOCH":498,"BSTAR":-0.00012129324,"MEAN_MOTION_DOT":-6.684e-5,"MEAN_MOTION_DDOT":0},{"OBJECT_NAME":"STARLINK-37014","OBJECT_ID":"2026-053K","EPOCH":"2026-04-10T06:00:00.999648","MEAN_MOTION":15.67226826,"ECCENTRICITY":0.0001844,"INCLINATION":97.2852,"RA_OF_ASC_NODE":336.1347,"ARG_OF_PERICENTER":110.6916,"MEAN_ANOMALY":165.6034,"EPHEMERIS_TYPE":0,"CLASSIFICATION_TYPE":"U","NORAD_CAT_ID":68216,"ELEMENT_SET_NO":999,"REV_AT_EPOCH":508,"BSTAR":-0.020961186,"MEAN_MOTION_DOT":-0.01979923,"MEAN_MOTION_DDOT":0},{"OBJECT_NAME":"STARLINK-37011","OBJECT_ID":"2026-053L","EPOCH":"2026-04-10T06:00:00.999648","MEAN_MOTION":15.66380111,"ECCENTRICITY":0.00018182,"INCLINATION":97.2854,"RA_OF_ASC_NODE":336.1324,"ARG_OF_PERICENTER":108.0505,"MEAN_ANOMALY":162.3515,"EPHEMERIS_TYPE":0,"CLASSIFICATION_TYPE":"U","NORAD_CAT_ID":68217,"ELEMENT_SET_NO":999,"REV_AT_EPOCH":508,"BSTAR":-0.02172545,"MEAN_MOTION_DOT":-0.01982407,"MEAN_MOTION_DDOT":0},{"OBJECT_NAME":"STARLINK-37108","OBJECT_ID":"2026-053M","EPOCH":"2026-04-10T06:00:00.999648","MEAN_MOTION":15.67764395,"ECCENTRICITY":0.00018694,"INCLINATION":97.2851,"RA_OF_ASC_NODE":336.1419,"ARG_OF_PERICENTER":107.8989,"MEAN_ANOMALY":182.9939,"EPHEMERIS_TYPE":0,"CLASSIFICATION_TYPE":"U","NORAD_CAT_ID":68218,"ELEMENT_SET_NO":999,"REV_AT_EPOCH":508,"BSTAR":-0.020676809,"MEAN_MOTION_DOT":-0.01994489,"MEAN_MOTION_DDOT":0}]
